<?xml version="1.0" encoding="UTF-8"?>
<kml xmlns:xsd="http://www.w3.org/2001/XMLSchema" xmlns:gx="http://www.google.com/kml/ext/2.2" xmlns:atom="http://www.w3.org/2005/Atom" xmlns="http://www.opengis.net/kml/2.2">
  <Document>
    <Model id="export.obj">
    <altitudeMode>clampToGround</altitudeMode>
    <Location> 
      <longitude>4.493600470682538</longitude> 
      <latitude>51.909737633090394</latitude> 
      <altitude>-0.000133015898675426</altitude> 
    </Location>
    <Orientation> 
      <heading>0</heading> 
      <tilt>0</tilt> 
      <roll>0.0</roll> 
    </Orientation> 
    <Scale> 
      <x>1.0</x> 
      <y>1.0</y> 
      <z>1.0</z> 
    </Scale> 
    <Link> 
      <href>export.obj</href> 
    </Link>   
  </Model>
  </Document>
</kml>
